{
  "norad_id": 59523,
  "name": "STARLINK-31476",
  "history": [
    {
      "epoch": "2026-03-28T15:35:59.512704Z",
      "apogee_km": 483.6170011582035,
      "perigee_km": 482.4245319383781,
      "latitude_deg": 1.419623857780187e-05,
      "longitude_deg": 151.02214603302937,
      "height_km": 482.93499370824753,
      "semi_major_axis_km": 6861.157766548291,
      "eccentricity": 8.69e-05,
      "inclination_deg": 43.0036,
      "raan_deg": 211.0875,
      "arg_perigee_deg": 256.6543,
      "mean_anomaly_deg": 103.4212,
      "mean_motion_rev_day": 15.27589461
    },
    {
      "epoch": "2026-03-29T01:00:57.331872Z",
      "apogee_km": 483.23272260806516,
      "perigee_km": 482.9761121790543,
      "latitude_deg": 2.6636696672838505e-05,
      "longitude_deg": 7.179342103280707,
      "height_km": 482.950329684541,
      "semi_major_axis_km": 6861.2414173935595,
      "eccentricity": 1.87e-05,
      "inclination_deg": 43.0044,
      "raan_deg": 208.8723,
      "arg_perigee_deg": 123.1636,
      "mean_anomaly_deg": 236.9234,
      "mean_motion_rev_day": 15.27561525
    },
    {
      "epoch": "2026-03-30T06:49:57.889920Z",
      "apogee_km": 483.7727529052254,
      "perigee_km": 482.42520615884405,
      "latitude_deg": 1.4188556295207199e-05,
      "longitude_deg": -88.3137289080888,
      "height_km": 482.6461388980499,
      "semi_major_axis_km": 6861.235979532034,
      "eccentricity": 9.82e-05,
      "inclination_deg": 43.0031,
      "raan_deg": 201.8561,
      "arg_perigee_deg": 289.9155,
      "mean_anomaly_deg": 70.1591,
      "mean_motion_rev_day": 15.27563341
    }
  ]
}